[{"OBJECT_NAME":"PROTOMETHEE","OBJECT_ID":"2023-174BT","EPOCH":"2026-03-09T23:28:08.029344","MEAN_MOTION":15.30202663,"ECCENTRICITY":0.00088339,"INCLINATION":97.3826,"RA_OF_ASC_NODE":147.9552,"ARG_OF_PERICENTER":148.5993,"MEAN_ANOMALY":211.5776,"EPHEMERIS_TYPE":0,"CLASSIFICATION_TYPE":"U","NORAD_CAT_ID":58321,"ELEMENT_SET_NO":999,"REV_AT_EPOCH":12979,"BSTAR":0.00015715731,"MEAN_MOTION_DOT":4.52e-5,"MEAN_MOTION_DDOT":0},{"OBJECT_NAME":"STARLINK-35671","OBJECT_ID":"2025-257N","EPOCH":"2026-03-09T17:27:29.284992","MEAN_MOTION":15.30194275,"ECCENTRICITY":0.00010701,"INCLINATION":53.1603,"RA_OF_ASC_NODE":216.5387,"ARG_OF_PERICENTER":78.877,"MEAN_ANOMALY":281.2351,"EPHEMERIS_TYPE":0,"CLASSIFICATION_TYPE":"U","NORAD_CAT_ID":66392,"ELEMENT_SET_NO":999,"REV_AT_EPOCH":1974,"BSTAR":0.00098113631,"MEAN_MOTION_DOT":0.00028807,"MEAN_MOTION_DDOT":0}]
